{
    "links": {
        "self": "http://www.neowsapp.com/rest/v1/neo/3335302?api_key=iIulBulltgU6a56xZRHN4H3l9WmuAYTsLGpBGhQ2"
    },
    "id": "3335302",
    "neo_reference_id": "3335302",
    "name": "(2006 KL103)",
    "designation": "2006 KL103",
    "nasa_jpl_url": "http://ssd.jpl.nasa.gov/sbdb.cgi?sstr=3335302",
    "absolute_magnitude_h": 25.5,
    "estimated_diameter": {
        "kilometers": {
            "estimated_diameter_min": 0.0211132445,
            "estimated_diameter_max": 0.0472106499
        },
        "meters": {
            "estimated_diameter_min": 21.113244479,
            "estimated_diameter_max": 47.2106498806
        },
        "miles": {
            "estimated_diameter_min": 0.0131191578,
            "estimated_diameter_max": 0.0293353287
        },
        "feet": {
            "estimated_diameter_min": 69.2691770164,
            "estimated_diameter_max": 154.8905885541
        }
    },
    "is_potentially_hazardous_asteroid": false,
    "close_approach_data": [
        {
            "close_approach_date": "2002-06-01",
            "close_approach_date_full": "2002-Jun-01 07:00",
            "epoch_date_close_approach": 1022914800000,
            "relative_velocity": {
                "kilometers_per_second": "7.2437698904",
                "kilometers_per_hour": "26077.5716053204",
                "miles_per_hour": "16203.5888677615"
            },
            "miss_distance": {
                "astronomical": "0.0454195866",
                "lunar": "17.6682191874",
                "kilometers": "6794673.411640542",
                "miles": "4222014.2805897996"
            },
            "orbiting_body": "Mars"
        },
        {
            "close_approach_date": "2006-06-01",
            "close_approach_date_full": "2006-Jun-01 18:41",
            "epoch_date_close_approach": 1149187260000,
            "relative_velocity": {
                "kilometers_per_second": "4.2754027758",
                "kilometers_per_hour": "15391.4499929744",
                "miles_per_hour": "9563.6484692457"
            },
            "miss_distance": {
                "astronomical": "0.0386307624",
                "lunar": "15.0273665736",
                "kilometers": "5779079.771516088",
                "miles": "3590953.6552864944"
            },
            "orbiting_body": "Earth"
        }
    ],
    "orbital_data": {
        "orbit_id": "8",
        "orbit_determination_date": "2017-04-06 09:15:47",
        "first_observation_date": "2006-05-31",
        "last_observation_date": "2006-06-03",
        "data_arc_in_days": 3,
        "observations_used": 23,
        "orbit_uncertainty": "8",
        "minimum_orbit_intersection": ".0250677",
        "jupiter_tisserand_invariant": "4.602",
        "epoch_osculation": "2453887.5",
        "eccentricity": ".2849625437041003",
        "semi_major_axis": "1.449168174557307",
        "inclination": ".3465377735369604",
        "ascending_node_longitude": "50.69059275353705",
        "orbital_period": "637.2012346750132",
        "perihelion_distance": "1.036209525280429",
        "perihelion_argument": "182.8742965634232",
        "aphelion_distance": "1.862126823834185",
        "perihelion_time": "2453872.862711420311",
        "mean_anomaly": "8.269638541073391",
        "mean_motion": ".5649706566931058",
        "equinox": "J2000",
        "orbit_class": {
            "orbit_class_type": "AMO",
            "orbit_class_description": "Near-Earth asteroid orbits similar to that of 1221 Amor",
            "orbit_class_range": "1.017 AU < q (perihelion) < 1.3 AU"
        }
    },
    "is_sentry_object": false
}